CAPELLA-11 (ACADIA-1)   
1 57693U 23126A   26200.83121323  .00002023  00000+0  26033-3 0  9990
2 57693  53.0077  43.1365 0002076 132.1310 227.9846 14.85234751156978
CAPELLA-14 (ACADIA-4)   
1 59444U 24066C   26200.74193763  .00005417  00000+0  37283-3 0  9996
2 59444  45.5998  84.0634 0002232  36.1334 323.9701 15.06947812117403
CAPELLA-13 (ACADIA-3)   
1 60419U 24142A   26201.22018902  .00001911  00000+0  23374-3 0  9991
2 60419  53.0044 273.3792 0001339  89.9473 270.1661 14.87651062105321
CAPELLA-15 (ACADIA-5)   
1 60544U 24149CE  26201.04182221  .00001526  00000+0  15454-3 0  9995
2 60544  97.6763 273.1217 0003078 319.7571  40.3420 14.92383060104759
CAPELLA-17 (ACADIA-7)   
1 64583U 25135BH  26200.87530270  .00003176  00000+0  32161-3 0  9996
2 64583  97.7711 314.0169 0004291 230.1466 129.9376 14.91650636 58722
CAPELLA-16 (ACADIA-6)   
1 65318U 25188D   26201.11018265  .00002894  00000+0  27610-3 0  9993
2 65318  97.7374 275.7704 0005839 122.8876 237.2907 14.94082948 48835
CAPELLA-19 (ACADIA-9)   
1 67384U 26004X   26200.97740807  .00002286  00000+0  26360-3 0  9999
2 67384  97.8013 198.7584 0001527  94.2568 265.8823 14.86640779 28140
CAPELLA-18 (ACADIA-8)   
1 67385U 26004Y   26201.25667318  .00001893  00000+0  21937-3 0  9995
2 67385  97.8025 199.1874 0001489  93.5257 266.6129 14.86630726 28199
CAPELLA-20 (ACADIA-10)  
1 68485U 26067BX  26200.89424277  .00003070  00000+0  31192-3 0  9993
2 68485  97.7558 158.6752 0001126  85.1496 274.9851 14.91530775 16602
