{"fetched_at":"2026-07-20T18:29:14.812Z","source":"https://celestrak.org/NORAD/elements/gp.php?NAME=CAPELLA&FORMAT=JSON","constellation":"capella","records":[{"OBJECT_NAME":"CAPELLA-11 (ACADIA-1)","OBJECT_ID":"2023-126A","EPOCH":"2026-07-19T19:56:56.823072","CLASSIFICATION_TYPE":"U","MEAN_MOTION":14.85234751,"ECCENTRICITY":0.00020764,"INCLINATION":53.0077,"RA_OF_ASC_NODE":43.1365,"ARG_OF_PERICENTER":132.131,"MEAN_ANOMALY":227.9846,"EPHEMERIS_TYPE":0,"NORAD_CAT_ID":57693,"ELEMENT_SET_NO":999,"REV_AT_EPOCH":15697,"BSTAR":0.00026033459,"MEAN_MOTION_DOT":0.00002023,"MEAN_MOTION_DDOT":0},{"OBJECT_NAME":"CAPELLA-14 (ACADIA-4)","OBJECT_ID":"2024-066C","EPOCH":"2026-07-19T17:48:23.411232","CLASSIFICATION_TYPE":"U","MEAN_MOTION":15.06947812,"ECCENTRICITY":0.00022327,"INCLINATION":45.5998,"RA_OF_ASC_NODE":84.0634,"ARG_OF_PERICENTER":36.1334,"MEAN_ANOMALY":323.9701,"EPHEMERIS_TYPE":0,"NORAD_CAT_ID":59444,"ELEMENT_SET_NO":999,"REV_AT_EPOCH":11740,"BSTAR":0.00037282522,"MEAN_MOTION_DOT":0.00005417,"MEAN_MOTION_DDOT":0},{"OBJECT_NAME":"CAPELLA-13 (ACADIA-3)","OBJECT_ID":"2024-142A","EPOCH":"2026-07-20T05:17:04.331328","CLASSIFICATION_TYPE":"U","MEAN_MOTION":14.87651062,"ECCENTRICITY":0.00013391,"INCLINATION":53.0044,"RA_OF_ASC_NODE":273.3792,"ARG_OF_PERICENTER":89.9473,"MEAN_ANOMALY":270.1661,"EPHEMERIS_TYPE":0,"NORAD_CAT_ID":60419,"ELEMENT_SET_NO":999,"REV_AT_EPOCH":10532,"BSTAR":0.00023373774,"MEAN_MOTION_DOT":0.00001911,"MEAN_MOTION_DDOT":0},{"OBJECT_NAME":"CAPELLA-15 (ACADIA-5)","OBJECT_ID":"2024-149CE","EPOCH":"2026-07-20T01:00:13.438944","CLASSIFICATION_TYPE":"U","MEAN_MOTION":14.9238306,"ECCENTRICITY":0.0003078,"INCLINATION":97.6763,"RA_OF_ASC_NODE":273.1217,"ARG_OF_PERICENTER":319.7571,"MEAN_ANOMALY":40.342,"EPHEMERIS_TYPE":0,"NORAD_CAT_ID":60544,"ELEMENT_SET_NO":999,"REV_AT_EPOCH":10475,"BSTAR":0.00015453535,"MEAN_MOTION_DOT":0.00001526,"MEAN_MOTION_DDOT":0},{"OBJECT_NAME":"CAPELLA-17 (ACADIA-7)","OBJECT_ID":"2025-135BH","EPOCH":"2026-07-19T21:00:26.153280","CLASSIFICATION_TYPE":"U","MEAN_MOTION":14.91650636,"ECCENTRICITY":0.00042911,"INCLINATION":97.7711,"RA_OF_ASC_NODE":314.0169,"ARG_OF_PERICENTER":230.1466,"MEAN_ANOMALY":129.9376,"EPHEMERIS_TYPE":0,"NORAD_CAT_ID":64583,"ELEMENT_SET_NO":999,"REV_AT_EPOCH":5872,"BSTAR":0.00032161137,"MEAN_MOTION_DOT":0.00003176,"MEAN_MOTION_DDOT":0},{"OBJECT_NAME":"CAPELLA-16 (ACADIA-6)","OBJECT_ID":"2025-188D","EPOCH":"2026-07-20T02:38:39.780960","CLASSIFICATION_TYPE":"U","MEAN_MOTION":14.94082948,"ECCENTRICITY":0.00058399,"INCLINATION":97.7374,"RA_OF_ASC_NODE":275.7704,"ARG_OF_PERICENTER":122.8876,"MEAN_ANOMALY":237.2907,"EPHEMERIS_TYPE":0,"NORAD_CAT_ID":65318,"ELEMENT_SET_NO":999,"REV_AT_EPOCH":4883,"BSTAR":0.00027609801,"MEAN_MOTION_DOT":0.00002894,"MEAN_MOTION_DDOT":0},{"OBJECT_NAME":"CAPELLA-19 (ACADIA-9)","OBJECT_ID":"2026-004X","EPOCH":"2026-07-19T23:27:28.057248","CLASSIFICATION_TYPE":"U","MEAN_MOTION":14.86640779,"ECCENTRICITY":0.00015271,"INCLINATION":97.8013,"RA_OF_ASC_NODE":198.7584,"ARG_OF_PERICENTER":94.2568,"MEAN_ANOMALY":265.8823,"EPHEMERIS_TYPE":0,"NORAD_CAT_ID":67384,"ELEMENT_SET_NO":999,"REV_AT_EPOCH":2814,"BSTAR":0.00026359657,"MEAN_MOTION_DOT":0.00002286,"MEAN_MOTION_DDOT":0},{"OBJECT_NAME":"CAPELLA-18 (ACADIA-8)","OBJECT_ID":"2026-004Y","EPOCH":"2026-07-20T06:09:36.562752","CLASSIFICATION_TYPE":"U","MEAN_MOTION":14.86630726,"ECCENTRICITY":0.00014893,"INCLINATION":97.8025,"RA_OF_ASC_NODE":199.1874,"ARG_OF_PERICENTER":93.5257,"MEAN_ANOMALY":266.6129,"EPHEMERIS_TYPE":0,"NORAD_CAT_ID":67385,"ELEMENT_SET_NO":999,"REV_AT_EPOCH":2819,"BSTAR":0.00021937188,"MEAN_MOTION_DOT":0.00001893,"MEAN_MOTION_DDOT":0},{"OBJECT_NAME":"CAPELLA-20 (ACADIA-10)","OBJECT_ID":"2026-067BX","EPOCH":"2026-07-19T21:27:42.575328","CLASSIFICATION_TYPE":"U","MEAN_MOTION":14.91530775,"ECCENTRICITY":0.00011261,"INCLINATION":97.7558,"RA_OF_ASC_NODE":158.6752,"ARG_OF_PERICENTER":85.1496,"MEAN_ANOMALY":274.9851,"EPHEMERIS_TYPE":0,"NORAD_CAT_ID":68485,"ELEMENT_SET_NO":999,"REV_AT_EPOCH":1660,"BSTAR":0.00031192302,"MEAN_MOTION_DOT":0.0000307,"MEAN_MOTION_DDOT":0}]}
